[{"OBJECT_NAME":"STARLINK-32503","OBJECT_ID":"2024-224U","EPOCH":"2026-03-09T07:03:35.560512","MEAN_MOTION":15.2758405,"ECCENTRICITY":2.971e-5,"INCLINATION":42.9915,"RA_OF_ASC_NODE":167.7568,"ARG_OF_PERICENTER":31.6864,"MEAN_ANOMALY":328.4006,"EPHEMERIS_TYPE":0,"CLASSIFICATION_TYPE":"U","NORAD_CAT_ID":62157,"ELEMENT_SET_NO":999,"REV_AT_EPOCH":7190,"BSTAR":0.00088870768,"MEAN_MOTION_DOT":0.00024277,"MEAN_MOTION_DDOT":0},{"OBJECT_NAME":"AL MUNTHER","OBJECT_ID":"2025-052AG","EPOCH":"2026-03-09T15:29:23.207136","MEAN_MOTION":15.28381521,"ECCENTRICITY":0.0008027,"INCLINATION":97.4001,"RA_OF_ASC_NODE":323.9152,"ARG_OF_PERICENTER":130.7043,"MEAN_ANOMALY":229.4895,"EPHEMERIS_TYPE":0,"CLASSIFICATION_TYPE":"U","NORAD_CAT_ID":63240,"ELEMENT_SET_NO":999,"REV_AT_EPOCH":5479,"BSTAR":0.00065015,"MEAN_MOTION_DOT":0.00017933,"MEAN_MOTION_DDOT":0}]
